SIRION PATHFINDER-2     
1 43759U 18099B   26138.38207869  .00002718  00000+0  15208-3 0  9994
2 43759  97.4270 188.1510 0009933  51.7569 308.4555 15.14250244408112
CORVUS BC4              
1 43767U 18099K   26138.08380287  .00003097  00000+0  18270-3 0  9999
2 43767  97.4086 181.9478 0010050 103.8501 256.3848 15.12226424407854
M2 PATHFINDER           
1 45727U 20037E   26138.25291086  .00001188  00000+0  89307-4 0  9998
2 45727  97.8161 329.1504 0009930 251.4495 108.5652 15.04533933320990
NETSAT-4                
1 46504U 20068U   26138.49435456  .00011013  00000+0  25348-3 0  9995
2 46504  97.8611 144.3747 0007435  75.7611 284.4460 15.42798689311191
NETSAT-3                
1 46505U 20068V   26138.80195485  .00012010  00000+0  28759-3 0  9993
2 46505  97.8661 142.9613 0007482  87.9231 272.2871 15.41580825311155
NETSAT-1                
1 46506U 20068W   26138.72119654  .00008004  00000+0  24689-3 0  9995
2 46506  97.8750 137.5460 0006962 107.5229 252.6773 15.33860375310786
NETSAT-2                
1 46507U 20068X   26138.24858022  .00013290  00000+0  28725-3 0  9990
2 46507  97.8625 143.9020 0006292  98.9669 261.2291 15.44629562311110
GREENCUBE (IO-117)      
1 53109U 22080E   26138.45774429 -.00000003  00000+0  00000+0 0  9994
2 53109  70.1432 308.5883 0008836 296.6746  63.3009  6.42583323 90159
SITRO-AIS 5 (KATYS)     
1 57176U 23091L   26138.81791816  .00007363  00000+0  26603-3 0  9990
2 57176  97.5073 202.4522 0011287 198.1257 161.9582 15.28714196159852
SITRO-AIS 6 (CHIRKIN)   
1 57192U 23091AC  26138.86155355  .00006620  00000+0  26521-3 0  9999
2 57192  97.5081 201.7676 0011414 201.3265 158.7499 15.25321656159818
SITRO-AIS 8 (ANOKHIN)   
1 57193U 23091AD  26138.81969670  .00008818  00000+0  29413-3 0  9992
2 57193  97.5069 203.9264 0010595 193.6145 166.4812 15.31262925159951
SITRO-AIS 7 (FARTUSHNIY)
1 57194U 23091AE  26138.85883900  .00006459  00000+0  26118-3 0  9996
2 57194  97.5078 201.6046 0011213 202.3854 157.6895 15.25023974159807
SITRO-AIS 10 (BURDAEV)  
1 57199U 23091AK  26138.84144978  .00012447  00000+0  34131-3 0  9993
2 57199  97.5091 208.7078 0007571 166.8761 193.2681 15.37402609160252
SITRO-AIS 9 (SHCHUKIN)  
1 57201U 23091AM  26138.85888360  .00012788  00000+0  35574-3 0  9998
2 57201  97.5089 208.4778 0007766 167.3001 192.8440 15.36946887160243
SITRO-AIS 12 (SMIRENNIY)
1 57204U 23091AQ  26138.85498846  .00012186  00000+0  33605-3 0  9992
2 57204  97.5101 208.9229 0007563 161.6328 198.5190 15.37232070160261
SITRO-AIS 11 (SHEFFER)  
1 57208U 23091AU  26138.87624125  .00012651  00000+0  34434-3 0  9997
2 57208  97.5100 209.1732 0007487 161.2341 198.9180 15.37628319160282
SITRO-AIS 25            
1 59066U 24039R   26138.82775860  .00003508  00000+0  27310-3 0  9998
2 59066  95.3918 214.9198 0147318  71.1387 290.5747 14.93297097120343
SITRO-AIS 26            
1 59067U 24039S   26138.82516998  .00003374  00000+0  26397-3 0  9999
2 59067  95.3918 214.8217 0147634  71.6847 290.0374 14.93099070120333
SITRO-AIS 27            
1 59068U 24039T   26138.87058500  .00003140  00000+0  24380-3 0  9996
2 59068  95.3918 215.1111 0146572  70.2088 291.4873 14.93509676120363
SITRO-AIS 28            
1 59071U 24039U   26138.84869921  .00002805  00000+0  21789-3 0  9991
2 59071  95.3922 215.1417 0146552  70.1241 291.5710 14.93546083120363
GRBBETA                 
1 60237U 24128C   26138.21904839  .00002680  00000+0  19190-3 0  9999
2 60237  61.9902 321.3893 0044713 128.4087 232.1034 15.06369712101754
OOV-CUBE (TUBSAT-30)    
1 60240U 24128F   26138.24440683  .00001544  00000+0  12844-3 0  9995
2 60240  61.9946 329.9701 0048363 127.2394 233.3124 15.02606171101618
ROBUSTA-3A (MEDITERRAN*)
1 60243U 24128J   26138.49629674  .00005260  00000+0  31757-3 0  9997
2 60243  61.9867 313.2040 0045441 122.4187 238.1316 15.11165445101931
LASARSAT                
1 62391U 24247Q   26138.50005312  .00019038  00000+0  40960-3 0  9998
2 62391  44.9758  68.7838 0005415 160.1412 199.9689 15.44392444 78725
CROCUBE                 
1 62394U 24247T   26138.20848084  .00021336  00000+0  43364-3 0  9994
2 62394  44.9731  68.2037 0005074 161.9433 198.1638 15.45997443 78702
FORESAIL-1 PRIME        
1 66778U 25276DS  26138.14640363  .00003594  00000+0  17800-3 0  9992
2 66778  97.4208 211.9724 0002301 170.4072 189.7206 15.18400035 25848
KNACKSAT-2              
1 67683U 98067XZ  26138.85612801  .00030213  00000+0  41089-3 0  9994
2 67683  51.6306  81.7032 0012214  91.5512 268.6879 15.57233816 15707
